[{"OBJECT_NAME":"COSMOS 2515","OBJECT_ID":"2016-020A","EPOCH":"2026-03-09T23:19:22.597248","MEAN_MOTION":15.0760084,"ECCENTRICITY":0.00222602,"INCLINATION":97.9825,"RA_OF_ASC_NODE":80.7081,"ARG_OF_PERICENTER":278.8424,"MEAN_ANOMALY":81.0282,"EPHEMERIS_TYPE":0,"CLASSIFICATION_TYPE":"U","NORAD_CAT_ID":41394,"ELEMENT_SET_NO":999,"REV_AT_EPOCH":54546,"BSTAR":0.00011725414,"MEAN_MOTION_DOT":1.724e-5,"MEAN_MOTION_DDOT":0},{"OBJECT_NAME":"STARLINK-4252","OBJECT_ID":"2022-077Q","EPOCH":"2026-03-09T22:40:46.889760","MEAN_MOTION":15.05655199,"ECCENTRICITY":0.00015341,"INCLINATION":97.6027,"RA_OF_ASC_NODE":251.553,"ARG_OF_PERICENTER":69.2175,"MEAN_ANOMALY":290.9216,"EPHEMERIS_TYPE":0,"CLASSIFICATION_TYPE":"U","NORAD_CAT_ID":53057,"ELEMENT_SET_NO":999,"REV_AT_EPOCH":20102,"BSTAR":-2.0556285e-5,"MEAN_MOTION_DOT":-3.57e-6,"MEAN_MOTION_DDOT":0}]
